{
  "type": "FeatureCollection",
  "features": [
    {
      "type": "Feature",
      "properties": {
        "norad_id": 66644,
        "name": "STARLINK-35938",
        "group": "last-30-days",
        "lat": 7.499184983974853,
        "lon": 44.66179858009317,
        "alt_km": 322.7622759120959,
        "timestamp": "2025-12-03T22:42:31.477348+00:00",
        "meta_object_name": "STARLINK-35938",
        "meta_object_id": "2025-271AD",
        "meta_epoch": "2025-12-02T16:00:03.000096",
        "meta_mean_motion": 15.87075445,
        "meta_eccentricity": 6.11e-05,
        "meta_inclination": 53.1569,
        "meta_ra_of_asc_node": 236.776,
        "meta_arg_of_pericenter": 110.5005,
        "meta_mean_anomaly": 316.195,
        "meta_ephemeris_type": 0,
        "meta_classification_type": "U",
        "meta_norad_cat_id": 66644,
        "meta_element_set_no": 999,
        "meta_rev_at_epoch": 262,
        "meta_bstar": -0.0074831,
        "meta_mean_motion_dot": -0.01721879,
        "meta_mean_motion_ddot": 0,
        "tle_line1": "1 66644U 25271AD  25336.66670139 -.01721879  00000+0 -74831-2 0  9991",
        "tle_line2": "2 66644  53.1569 236.7760 0000611 110.5005 316.1950 15.87075445  2629"
      },
      "geometry": {
        "type": "Point",
        "coordinates": [
          44.66179858009317,
          7.499184983974853
        ]
      }
    },
    {
      "type": "Feature",
      "properties": {
        "norad_id": 66645,
        "name": "SHENZHOU-22",
        "group": "last-30-days",
        "lat": 29.016703700902923,
        "lon": 108.98122049064496,
        "alt_km": 386.09031028347727,
        "timestamp": "2025-12-03T22:42:31.477357+00:00",
        "meta_object_name": "SHENZHOU-22",
        "meta_object_id": "2025-272A",
        "meta_epoch": "2025-12-03T08:40:01.753824",
        "meta_mean_motion": 15.58580261,
        "meta_eccentricity": 0.00100709,
        "meta_inclination": 41.4677,
        "meta_ra_of_asc_node": 73.6192,
        "meta_arg_of_pericenter": 319.5464,
        "meta_mean_anomaly": 40.4624,
        "meta_ephemeris_type": 0,
        "meta_classification_type": "U",
        "meta_norad_cat_id": 66645,
        "meta_element_set_no": 999,
        "meta_rev_at_epoch": 26257,
        "meta_bstar": 0.00034171532,
        "meta_mean_motion_dot": 0.00026743,
        "meta_mean_motion_ddot": 0,
        "tle_line1": "1 66645U 25272A   25337.36113141  .00026743  00000+0  34172-3 0  9996",
        "tle_line2": "2 66645  41.4677  73.6192 0010070 319.5464  40.4624 15.58580261262579"
      },
      "geometry": {
        "type": "Point",
        "coordinates": [
          108.98122049064496,
          29.016703700902923
        ]
      }
    },
    {
      "type": "Feature",
      "properties": {
        "norad_id": 66646,
        "name": "CZ-2F R/B",
        "group": "last-30-days",
        "lat": 35.12512169481336,
        "lon": 119.14386178565901,
        "alt_km": 288.7795883057861,
        "timestamp": "2025-12-03T22:42:31.477368+00:00",
        "meta_object_name": "CZ-2F R/B",
        "meta_object_id": "2025-272B",
        "meta_epoch": "2025-11-26T11:17:54.506400",
        "meta_mean_motion": 16.01945612,
        "meta_eccentricity": 0.01210796,
        "meta_inclination": 41.4431,
        "meta_ra_of_asc_node": 114.9009,
        "meta_arg_of_pericenter": 133.7676,
        "meta_mean_anomaly": 227.3272,
        "meta_ephemeris_type": 0,
        "meta_classification_type": "U",
        "meta_norad_cat_id": 66646,
        "meta_element_set_no": 999,
        "meta_rev_at_epoch": 21,
        "meta_bstar": 0.00029319366,
        "meta_mean_motion_dot": 0.00449059,
        "meta_mean_motion_ddot": 7.567612e-06,
        "tle_line1": "1 66646U 25272B   25330.47076975  .00449059  75676-5  29319-3 0  9998",
        "tle_line2": "2 66646  41.4431 114.9009 0121079 133.7676 227.3272 16.01945612   217"
      },
      "geometry": {
        "type": "Point",
        "coordinates": [
          119.14386178565901,
          35.12512169481336
        ]
      }
    },
    {
      "type": "Feature",
      "properties": {
        "norad_id": 66647,
        "name": "COSMOS 2597 (RODNIK-S 22)",
        "group": "last-30-days",
        "lat": 51.340458415560335,
        "lon": -58.609920559421205,
        "alt_km": 1494.8452761458875,
        "timestamp": "2025-12-03T22:42:31.477379+00:00",
        "meta_object_name": "COSMOS 2597 (RODNIK-S 22)",
        "meta_object_id": "2025-273A",
        "meta_epoch": "2025-12-03T12:45:47.184768",
        "meta_mean_motion": 12.41951055,
        "meta_eccentricity": 0.0008136,
        "meta_inclination": 82.4981,
        "meta_ra_of_asc_node": 292.1677,
        "meta_arg_of_pericenter": 310.75,
        "meta_mean_anomaly": 49.2872,
        "meta_ephemeris_type": 0,
        "meta_classification_type": "U",
        "meta_norad_cat_id": 66647,
        "meta_element_set_no": 999,
        "meta_rev_at_epoch": 99,
        "meta_bstar": -1.0431e-05,
        "meta_mean_motion_dot": 8e-08,
        "meta_mean_motion_ddot": 0,
        "tle_line1": "1 66647U 25273A   25337.53179612  .00000008  00000+0 -10431-4 0  9993",
        "tle_line2": "2 66647  82.4981 292.1677 0008136 310.7500  49.2872 12.41951055   994"
      },
      "geometry": {
        "type": "Point",
        "coordinates": [
          -58.609920559421205,
          51.340458415560335
        ]
      }
    },
    {
      "type": "Feature",
      "properties": {
        "norad_id": 66648,
        "name": "COSMOS 2598 (RODNIK-S 23)",
        "group": "last-30-days",
        "lat": 60.104607631632064,
        "lon": -54.84293840041923,
        "alt_km": 1494.666528547782,
        "timestamp": "2025-12-03T22:42:31.477388+00:00",
        "meta_object_name": "COSMOS 2598 (RODNIK-S 23)",
        "meta_object_id": "2025-273B",
        "meta_epoch": "2025-12-03T12:43:01.481664",
        "meta_mean_motion": 12.42252997,
        "meta_eccentricity": 0.0008222,
        "meta_inclination": 82.5023,
        "meta_ra_of_asc_node": 292.1747,
        "meta_arg_of_pericenter": 299.3441,
        "meta_mean_anomaly": 60.6816,
        "meta_ephemeris_type": 0,
        "meta_classification_type": "U",
        "meta_norad_cat_id": 66648,
        "meta_element_set_no": 999,
        "meta_rev_at_epoch": 99,
        "meta_bstar": -0.00010066,
        "meta_mean_motion_dot": -4e-08,
        "meta_mean_motion_ddot": 0,
        "tle_line1": "1 66648U 25273B   25337.52987826 -.00000004  00000+0 -10066-3 0  9997",
        "tle_line2": "2 66648  82.5023 292.1747 0008222 299.3441  60.6816 12.42252997   998"
      },
      "geometry": {
        "type": "Point",
        "coordinates": [
          -54.84293840041923,
          60.104607631632064
        ]
      }
    },
    {
      "type": "Feature",
      "properties": {
        "norad_id": 66649,
        "name": "COSMOS 2599 (RODNIK-S 24)",
        "group": "last-30-days",
        "lat": 43.158719121422884,
        "lon": -60.985158964732726,
        "alt_km": 1495.0545126992765,
        "timestamp": "2025-12-03T22:42:31.477397+00:00",
        "meta_object_name": "COSMOS 2599 (RODNIK-S 24)",
        "meta_object_id": "2025-273C",
        "meta_epoch": "2025-12-03T12:48:20.460960",
        "meta_mean_motion": 12.41671796,
        "meta_eccentricity": 0.0008359,
        "meta_inclination": 82.5022,
        "meta_ra_of_asc_node": 292.1777,
        "meta_arg_of_pericenter": 321.044,
        "meta_mean_anomaly": 39.0036,
        "meta_ephemeris_type": 0,
        "meta_classification_type": "U",
        "meta_norad_cat_id": 66649,
        "meta_element_set_no": 999,
        "meta_rev_at_epoch": 99,
        "meta_bstar": -3.0113e-05,
        "meta_mean_motion_dot": 6e-08,
        "meta_mean_motion_ddot": 0,
        "tle_line1": "1 66649U 25273C   25337.53357015  .00000006  00000+0 -30113-4 0  9997",
        "tle_line2": "2 66649  82.5022 292.1777 0008359 321.0440  39.0036 12.41671796   999"
      },
      "geometry": {
        "type": "Point",
        "coordinates": [
          -60.985158964732726,
          43.158719121422884
        ]
      }
    },
    {
      "type": "Feature",
      "properties": {
        "norad_id": 66650,
        "name": "2025-274A",
        "group": "last-30-days",
        "lat": -77.85598383974259,
        "lon": 46.10441261047021,
        "alt_km": 593.6764118400397,
        "timestamp": "2025-12-03T22:42:31.477406+00:00",
        "meta_object_name": "2025-274A",
        "meta_object_id": "2025-274A",
        "meta_epoch": "2025-12-03T08:39:47.382048",
        "meta_mean_motion": 14.91607903,
        "meta_eccentricity": 0.0010423,
        "meta_inclination": 97.7383,
        "meta_ra_of_asc_node": 264.7216,
        "meta_arg_of_pericenter": 287.7006,
        "meta_mean_anomaly": 72.3075,
        "meta_ephemeris_type": 0,
        "meta_classification_type": "U",
        "meta_norad_cat_id": 66650,
        "meta_element_set_no": 999,
        "meta_rev_at_epoch": 100,
        "meta_bstar": 0.00030108,
        "meta_mean_motion_dot": 2.969e-05,
        "meta_mean_motion_ddot": 0,
        "tle_line1": "1 66650U 25274A   25337.36096507  .00002969  00000+0  30108-3 0  9999",
        "tle_line2": "2 66650  97.7383 264.7216 0010423 287.7006  72.3075 14.91607903  1005"
      },
      "geometry": {
        "type": "Point",
        "coordinates": [
          46.10441261047021,
          -77.85598383974259
        ]
      }
    }
  ]
}